[{"OBJECT_NAME":"DONGPO 09","OBJECT_ID":"2022-167D","EPOCH":"2026-03-09T22:41:56.215392","MEAN_MOTION":15.33957076,"ECCENTRICITY":0.00036388,"INCLINATION":97.6808,"RA_OF_ASC_NODE":235.7428,"ARG_OF_PERICENTER":115.2371,"MEAN_ANOMALY":244.9249,"EPHEMERIS_TYPE":0,"CLASSIFICATION_TYPE":"U","NORAD_CAT_ID":54685,"ELEMENT_SET_NO":999,"REV_AT_EPOCH":18022,"BSTAR":0.00050563217,"MEAN_MOTION_DOT":0.00016547,"MEAN_MOTION_DDOT":0},{"OBJECT_NAME":"ARIANE 44LP R\/B","OBJECT_ID":"1989-062C","EPOCH":"2026-03-09T11:21:33.151968","MEAN_MOTION":2.49277887,"ECCENTRICITY":0.7066783,"INCLINATION":6.8977,"RA_OF_ASC_NODE":165.8912,"ARG_OF_PERICENTER":266.0153,"MEAN_ANOMALY":17.9053,"EPHEMERIS_TYPE":0,"CLASSIFICATION_TYPE":"U","NORAD_CAT_ID":20170,"ELEMENT_SET_NO":999,"REV_AT_EPOCH":31254,"BSTAR":0.0015773,"MEAN_MOTION_DOT":1.026e-5,"MEAN_MOTION_DDOT":0}]
